{"generatedAt":"2026-05-05T08:19:47.084492Z","satellites":[{"name":"STARLINK-37566","tle1":"1 68908U 26097P   26124.75002315 -.02159612  13670-2 -45096-2 0  9996","tle2":"2 68908  97.2867 319.6785 0001387  92.5936 146.7010 15.99195284  1940"}]}