{
  "norad_id": 68908,
  "name": "STARLINK-37566",
  "history": [
    {
      "epoch": "2026-05-04T18:00:02.000160Z",
      "apogee_km": 277.5732464649309,
      "perigee_km": 275.72720848802965,
      "latitude_deg": -58.76385381580617,
      "longitude_deg": -5.066061956535396,
      "height_km": 300.20435254331005,
      "semi_major_axis_km": 6654.78722747648,
      "eccentricity": 0.0001387,
      "inclination_deg": 97.2867,
      "raan_deg": 319.6785,
      "arg_perigee_deg": 92.5936,
      "mean_anomaly_deg": 146.701,
      "mean_motion_rev_day": 15.99195284
    }
  ]
}